{
  "norad_id": 65505,
  "name": "STARLINK-35072",
  "history": [
    {
      "epoch": "2026-04-14T11:53:23.422272Z",
      "apogee_km": 475.8818932903896,
      "perigee_km": 474.55535777551177,
      "latitude_deg": -8.654450331917846e-06,
      "longitude_deg": 83.54968948247509,
      "height_km": 476.0559151023294,
      "semi_major_axis_km": 6853.35562553295,
      "eccentricity": 9.678e-05,
      "inclination_deg": 53.1578,
      "raan_deg": 104.5683,
      "arg_perigee_deg": 84.7262,
      "mean_anomaly_deg": 275.3849,
      "mean_motion_rev_day": 15.30198809
    },
    {
      "epoch": "2026-04-15T16:06:20.798784Z",
      "apogee_km": 475.8148608749225,
      "perigee_km": 474.5826311077926,
      "latitude_deg": -1.9008293743205644e-05,
      "longitude_deg": 13.69022767703645,
      "height_km": 475.96417489170244,
      "semi_major_axis_km": 6853.335745991357,
      "eccentricity": 8.99e-05,
      "inclination_deg": 53.1562,
      "raan_deg": 99.1067,
      "arg_perigee_deg": 77.5552,
      "mean_anomaly_deg": 282.5549,
      "mean_motion_rev_day": 15.30205467
    },
    {
      "epoch": "2026-04-16T09:20:56.018400Z",
      "apogee_km": 476.0613359863055,
      "perigee_km": 474.3630760530541,
      "latitude_deg": 2.6691103941167948e-05,
      "longitude_deg": 110.99866508946987,
      "height_km": 476.1063681432598,
      "semi_major_axis_km": 6853.3492060196795,
      "eccentricity": 0.0001239,
      "inclination_deg": 53.1578,
      "raan_deg": 95.77,
      "arg_perigee_deg": 89.7493,
      "mean_anomaly_deg": 270.365,
      "mean_motion_rev_day": 15.30200959
    },
    {
      "epoch": "2026-04-17T10:25:47.106336Z",
      "apogee_km": 475.972270823303,
      "perigee_km": 474.43698523179137,
      "latitude_deg": 2.7146806900765677e-05,
      "longitude_deg": 88.90046645801964,
      "height_km": 476.0437892485036,
      "semi_major_axis_km": 6853.341628027547,
      "eccentricity": 0.00011201,
      "inclination_deg": 53.1586,
      "raan_deg": 90.9147,
      "arg_perigee_deg": 85.5942,
      "mean_anomaly_deg": 274.5187,
      "mean_motion_rev_day": 15.30203497
    },
    {
      "epoch": "2026-04-18T09:56:35.018880Z",
      "apogee_km": 476.0703784610514,
      "perigee_km": 474.25685805144894,
      "latitude_deg": 4.911230329961243e-05,
      "longitude_deg": 90.68469058483798,
      "height_km": 476.16412662734353,
      "semi_major_axis_km": 6853.30061825625,
      "eccentricity": 0.00013231,
      "inclination_deg": 53.1594,
      "raan_deg": 86.3642,
      "arg_perigee_deg": 96.4945,
      "mean_anomaly_deg": 263.6207,
      "mean_motion_rev_day": 15.30217232
    },
    {
      "epoch": "2026-04-19T07:53:19.565088Z",
      "apogee_km": 475.9675745359018,
      "perigee_km": 474.39158585512087,
      "latitude_deg": 5.975001589982054e-06,
      "longitude_deg": 116.35117065431118,
      "height_km": 476.00696667449523,
      "semi_major_axis_km": 6853.316580195511,
      "eccentricity": 0.00011498,
      "inclination_deg": 53.1596,
      "raan_deg": 82.1176,
      "arg_perigee_deg": 84.8436,
      "mean_anomaly_deg": 275.2696,
      "mean_motion_rev_day": 15.30211886
    },
    {
      "epoch": "2026-04-20T04:16:01.692768Z",
      "apogee_km": 476.07857841184887,
      "perigee_km": 474.39141529366316,
      "latitude_deg": 3.455485547331481e-05,
      "longitude_deg": 165.89294884091115,
      "height_km": 476.28325837979037,
      "semi_major_axis_km": 6853.371996852756,
      "eccentricity": 0.00012309,
      "inclination_deg": 53.1609,
      "raan_deg": 78.1718,
      "arg_perigee_deg": 100.2438,
      "mean_anomaly_deg": 259.8702,
      "mean_motion_rev_day": 15.30193326
    },
    {
      "epoch": "2026-04-21T21:01:24.460320Z",
      "apogee_km": 476.71120168292236,
      "perigee_km": 473.5956958449151,
      "latitude_deg": -4.858967889434886e-05,
      "longitude_deg": -95.01268477876769,
      "height_km": 476.225480996265,
      "semi_major_axis_km": 6853.290448763919,
      "eccentricity": 0.0002273,
      "inclination_deg": 53.161,
      "raan_deg": 70.2849,
      "arg_perigee_deg": 96.4599,
      "mean_anomaly_deg": 263.666,
      "mean_motion_rev_day": 15.30220638
    },
    {
      "epoch": "2026-04-22T14:15:59.971104Z",
      "apogee_km": 476.25041118120316,
      "perigee_km": 474.21221944422905,
      "latitude_deg": -2.2241042035360977e-05,
      "longitude_deg": 2.2929185272725294,
      "height_km": 476.3728969848986,
      "semi_major_axis_km": 6853.368315312716,
      "eccentricity": 0.0001487,
      "inclination_deg": 53.1624,
      "raan_deg": 66.9466,
      "arg_perigee_deg": 103.8234,
      "mean_anomaly_deg": 256.2932,
      "mean_motion_rev_day": 15.30194559
    }
  ]
}